     2.100          NAVIGATION                              RINEX VERSION / TYPE
fic2rin                                 03/04/2010 00:23:01 PGM / RUN BY / DATE
                                                            END OF HEADER
20 10  3  3  8  0  0.0  .602514483035D-04 -.682121026330D-12  .000000000000D+00
     .320000000000D+02  .472812500000D+02  .544094092274D-08 -.190240265482D+01
     .249408185482D-05  .434917211533D-02  .174902379513D-05  .515366056252D+04
     .288000000000D+06  .987201929092D-07  .189044390371D+01 -.298023223877D-07
     .937852815094D+00  .333812500000D+03  .129275703663D+01 -.882715340066D-08
     .118576367753D-09  .100000000000D+01  .157300000000D+04  .000000000000D+00
     .240000000000D+01  .000000000000D+00 -.791624188423D-08  .320000000000D+02
     .280806000000D+06  .400000000000D+01
21 10  3  3  8  0  0.0 -.441921874881D-04 -.250111042988D-11  .000000000000D+00
     .300000000000D+02  .813437500000D+02  .491663336894D-08 -.922981778833D+00
     .424683094025D-05  .160432023695D-01  .100843608379D-04  .515370818138D+04
     .288000000000D+06  .378116965294D-06  .886660450224D+00  .160187482834D-06
     .932998857296D+00  .170031250000D+03 -.251863101962D+01 -.833606151614D-08
     .108218793461D-09  .100000000000D+01  .157300000000D+04  .000000000000D+00
     .240000000000D+01  .000000000000D+00 -.121071934700D-07  .300000000000D+02
     .280806000000D+06  .400000000000D+01
22 10  3  3  8  0  0.0  .177849549800D-03 -.795807864051D-12  .000000000000D+00
     .150000000000D+02  .347187500000D+02  .535450875107D-08 -.304894150049D+01
     .176765024662D-05  .508285569958D-02  .183284282684D-05  .515365539932D+04
     .288000000000D+06  .372529029846D-07  .194949042559D+01  .186264514923D-08
     .935723586106D+00  .331593750000D+03 -.190237277764D+01 -.864714590262D-08
     .760745973838D-10  .100000000000D+01  .157300000000D+04  .000000000000D+00
     .240000000000D+01  .000000000000D+00 -.176951289177D-07  .150000000000D+02
     .280806000000D+06  .400000000000D+01
23 10  3  3  8  0  0.0  .378447119147D-03 -.102318153949D-11  .000000000000D+00
     .470000000000D+02 -.104718750000D+03  .429482175371D-08  .161175201164D+01
    -.533834099770D-05  .638715073001D-02  .859238207340D-05  .515372114754D+04
     .288000000000D+06  .167638063431D-07  .297513778664D+01  .122934579849D-06
     .968874822440D+00  .217968750000D+03  .300478333144D+01 -.807355058150D-08
    -.502878089748D-09  .100000000000D+01  .157300000000D+04  .000000000000D+00
     .240000000000D+01  .000000000000D+00 -.200234353542D-07  .470000000000D+02
     .280806000000D+06  .400000000000D+01
24 10  3  3  8  0  0.0  .267177820206D-03  .329691829393D-11  .000000000000D+00
     .200000000000D+02  .866250000000D+02  .447840082908D-08 -.274069519465D+01
     .435672700405D-05  .582693098113D-02  .107083469629D-04  .515490032768D+04
     .288000000000D+06 -.521540641785D-07  .923609990966D+00  .726431608200D-07
     .949569884826D+00  .167281250000D+03 -.474783169356D+00 -.797818946647D-08
     .133934150324D-09  .100000000000D+01  .157300000000D+04  .000000000000D+00
     .240000000000D+01  .000000000000D+00 -.139698386192D-08  .200000000000D+02
     .280806000000D+06  .400000000000D+01
26 10  3  3  8  0  0.0 -.239992514253D-04 -.386535248253D-11  .000000000000D+00
     .101000000000D+03 -.739375000000D+02  .374729894719D-08 -.214399164551D+00
    -.377185642719D-05  .193222498056D-01  .899843871593D-05  .515233545113D+04
     .288000000000D+06 -.987201929092D-07  .303071744283D+01  .230967998505D-06
     .991493848819D+00  .226000000000D+03  .106308139393D+01 -.810140888477D-08
    -.268582616115D-09  .100000000000D+01  .157300000000D+04  .000000000000D+00
     .240000000000D+01  .000000000000D+00 -.605359673500D-08  .101000000000D+03
     .280806000000D+06  .400000000000D+01
27 10  3  3  8  0  0.0  .130818691105D-03  .329691829393D-11  .000000000000D+00
     .650000000000D+02 -.100000000000D+01  .393016370709D-08  .236017927716D+01
    -.726431608200D-07  .216981833801D-01  .112354755402D-04  .515366426086D+04
     .288000000000D+06  .301748514175D-06 -.232340575618D+01 -.126659870148D-06
     .977611929507D+00  .167062500000D+03 -.145412139486D+01 -.736709258326D-08
     .261082303697D-09  .100000000000D+01  .157300000000D+04  .000000000000D+00
     .240000000000D+01  .000000000000D+00 -.419095158577D-08  .650000000000D+02
     .280806000000D+06  .400000000000D+01
28 10  3  3  8  0  0.0 -.211843289435D-04  .682121026330D-12  .000000000000D+00
     .460000000000D+02  .212500000000D+01  .486841707483D-08 -.286931723579D+01
     .633299350739D-07  .158744095825D-01  .397302210331D-05  .515365633202D+04
     .288000000000D+06  .270083546638D-06 -.118778725604D+01 -.154599547386D-06
     .969061692669D+00  .305031250000D+03 -.197126897481D+01 -.812569561070D-08
     .225723688012D-09  .100000000000D+01  .157300000000D+04  .000000000000D+00
     .240000000000D+01  .000000000000D+00 -.107102096081D-07  .460000000000D+02
     .280806000000D+06  .400000000000D+01
29 10  3  3  8  0  0.0  .102207064629D-03  .295585778076D-11  .000000000000D+00
     .230000000000D+02 -.611250000000D+02  .459376277723D-08 -.710517740373D+00
    -.308826565742D-05  .296224444173D-02  .982545316219D-05  .515378671455D+04
     .288000000000D+06 -.614672899246D-07 -.144318439694D+00 -.577419996262D-07
     .960838081551D+00  .187593750000D+03 -.131474565797D+01 -.814212486647D-08
    -.522521765129D-09  .100000000000D+01  .157300000000D+04  .000000000000D+00
     .240000000000D+01  .000000000000D+00 -.884756445885D-08  .230000000000D+02
     .280806000000D+06  .400000000000D+01
30 10  3  3  8  0  0.0  .221211928874D-03  .341060513165D-11  .000000000000D+00
     .300000000000D+02  .168437500000D+02  .516378652101D-08 -.238572517690D+01
     .929459929466D-06  .119882074650D-01  .395812094212D-05  .515376595879D+04
     .288000000000D+06  .135973095894D-06 -.126521456385D+01  .100582838058D-06
     .954771800615D+00  .298968750000D+03  .147471897859D+01 -.833356141200D-08
     .317870383435D-09  .100000000000D+01  .157300000000D+04  .000000000000D+00
     .240000000000D+01  .000000000000D+00 -.791624188423D-08  .300000000000D+02
     .280806000000D+06  .400000000000D+01
31 10  3  3  8  0  0.0 -.491244718432D-04  .170530256582D-11  .000000000000D+00
     .840000000000D+02  .284375000000D+02  .410588531232D-08 -.407497688886D-01
     .127777457237D-05  .758703215979D-02  .113323330879D-04  .515363435364D+04
     .288000000000D+06 -.102445483208D-06 -.226758723619D+01 -.124797224998D-06
     .976037077713D+00  .167781250000D+03 -.108655685351D+01 -.790247202682D-08
     .456804742037D-09  .100000000000D+01  .157300000000D+04  .000000000000D+00
     .240000000000D+01  .000000000000D+00 -.130385160446D-07  .840000000000D+02
     .280806000000D+06  .400000000000D+01
32 10  3  3  8  0  0.0  .829538330436D-04 -.852651282912D-11  .000000000000D+00
     .950000000000D+02  .175000000000D+02  .509378360510D-08  .792177334554D+00
     .631436705589D-06  .128209193936D-01  .202469527721D-05  .515357675171D+04
     .288000000000D+06  .130385160446D-07  .200594161522D+01 -.311061739922D-06
     .959841906022D+00  .340625000000D+03 -.101437860403D+01 -.881822445730D-08
     .271439877989D-10  .100000000000D+01  .157300000000D+04  .000000000000D+00
     .240000000000D+01  .000000000000D+00 -.325962901115D-08  .950000000000D+02
     .280806000000D+06  .400000000000D+01
12 10  3  3  7 59 44.0 -.143375247717D-03  .466116034659D-11  .000000000000D+00
     .120000000000D+02  .815625000000D+01  .494449167221D-08  .685273121290D-01
     .398606061935D-06  .345763924997D-02  .430457293987D-05  .515373221588D+04
     .287984000000D+06 -.130385160446D-07 -.121295447359D+01 -.372529029846D-07
     .969545462123D+00  .304375000000D+03 -.535389088762D+00 -.840606443204D-08
     .216080429189D-09  .100000000000D+01  .157300000000D+04  .000000000000D+00
     .240000000000D+01  .000000000000D+00 -.121071934700D-07  .120000000000D+02
     .282666000000D+06  .400000000000D+01
19 10  3  3  7 59 44.0 -.190502032638D-04 -.238742359215D-11  .000000000000D+00
     .400000000000D+01 -.543750000000D+02  .464733643736D-08  .215377371497D+01
    -.263750553131D-05  .621096603572D-02  .105313956738D-04  .515370792770D+04
     .287984000000D+06  .428408384323D-07 -.973108851147D-01  .203028321266D-06
     .958196780033D+00  .174750000000D+03 -.178168144801D+00 -.803533470394D-08
    -.606096674931D-09  .100000000000D+01  .157300000000D+04  .000000000000D+00
     .240000000000D+01  .000000000000D+00 -.149011611938D-07  .400000000000D+01
     .283956000000D+06  .400000000000D+01
 9 10  3  3  7 59 44.0  .109290238470D-03  .227373675443D-11  .000000000000D+00
     .100000000000D+01  .170312500000D+02  .407231248530D-08 -.746586285516D+00
     .948086380959D-06  .207011400489D-01  .116992741823D-04  .515360636711D+04
     .287984000000D+06 -.249594449997D-06 -.229878258324D+01  .149011611938D-06
     .979574587716D+00  .173562500000D+03  .153197055704D+01 -.810748056625D-08
     .473591155544D-09  .100000000000D+01  .157300000000D+04  .000000000000D+00
     .240000000000D+01  .000000000000D+00 -.558793544769D-08  .100000000000D+01
     .285606000000D+06  .400000000000D+01
11 10  3  3  7 59 44.0 -.484185293317D-04 -.216004991671D-11  .000000000000D+00
     .100000000000D+01  .680312500000D+02  .595524805999D-08 -.109514218575D+00
     .359117984772D-05  .105092363665D-01  .123288482428D-04  .515373708916D+04
     .287984000000D+06  .335276126862D-07  .643100995189D+00  .137835741043D-06
     .888927354432D+00  .100937500000D+03  .794106377832D+00 -.886215485861D-08
    -.685742849656D-10  .100000000000D+01  .157300000000D+04  .000000000000D+00
     .240000000000D+01  .000000000000D+00 -.116415321827D-07  .100000000000D+01
     .286266000000D+06  .400000000000D+01
